307P/LINEAR,e,4.4335,158.1459,222.1376,5.793467,0.0706800,0.67451563,158.9806,02/16.0/2021,2000,g 15.0,4.0
# From MPC109148
308P/Lagerkvist-Carsenty,e,4.8504,63.0906,333.5957,6.605167,0.0580602,0.36319557,122.6911,02/16.0/2021,2000,g 13.0,2.0
# From MPC 94284
309P/LINEAR,e,17.0232,10.1406,49.9650,4.371501,0.1078346,0.61761465,237.2931,02/16.0/2021,2000,g 15.0,4.0
# From MPC 98566
310P/Hill,e,13.1279,8.9252,31.8373,4.178158,0.1154056,0.42178908,246.7983,02/16.0/2021,2000,g 13.5,4.0
# From MPEC 2021-BE3
311P/PANSTARRS,e,4.9698,279.2277,144.5854,2.188814,0.3043622,0.11546903,40.0411,02/16.0/2021,2000,g 17.0,4.0
# From MPEC 2021-BE3
312P/NEAT,e,19.7684,144.6698,207.5349,3.466133,0.1527341,0.42780964,21.9933,02/16.0/2021,2000,g 16.0,4.0
# From MPEC 2021-BE3
313P/Gibbs,e,10.9831,105.9731,254.6634,3.162067,0.1752861,0.23495030,53.7475,02/16.0/2021,2000,g 15.0,4.0
# From MPC105243
314P/Montani,e,3.9796,267.6164,214.1628,7.271352,0.0502668,0.41604204,80.0122,02/16.0/2021,2000,g  9.5,4.0
# From MPC115888
315P/LONEOS,e,17.7732,68.9769,65.6812,4.939145,0.0897897,0.52174804,138.2064,02/16.0/2021,2000,g 11.0,4.0
# From MPC 92279
316P/LONEOS-Christensen,e,9.8551,246.6835,193.5077,4.357756,0.1083452,0.15810927,211.2250,02/16.0/2021,2000,g 13.5,4.0
# From MPEC 2020-C98
317P/WISE,e,11.9501,275.5160,334.9038,2.965424,0.1930074,0.57050440,27.5653,02/16.0/2021,2000,g 17.5,4.0
# From MPC102103
318P/McNaught-Hartley,e,17.8759,35.6056,313.1525,7.497611,0.0480087,0.67514893,93.2139,02/16.0/2021,2000,g  8.5,6.0
# From MPC 97499
319P/Catalina-McNaught,e,15.0951,111.3773,203.6421,3.567864,0.1462486,0.66660336,300.2689,02/16.0/2021,2000,g 15.0,4.0
# From MPC 96281
320P/McNaught,e,4.9089,295.9301,0.7756,3.094049,0.1810979,0.68575977,5.4073,02/16.0/2021,2000,g 20.5,4.0
# From MPC105243
321P/SOHO,e,20.0687,165.0285,172.7358,2.423322,0.2612686,0.98109432,0.0000,01/17.2838/2020,2000,g 20.0,4.0
# From MPC102103
322P/SOHO,e,11.4629,351.4907,56.9107,2.508061,0.2481401,0.97979179,0.0000,08/31.4518/2019,2000,g 19.0,4.0
# From MPEC 2016-Y36
323P/SOHO,e,5.3387,324.3750,353.0531,2.582048,0.2375514,0.98484279,0.0000,01/17.7618/2021,2000,g 20.0,4.0
# From MPC108598
324P/La Sagra,e,21.4094,270.6343,57.7240,3.097906,0.1807598,0.15474375,345.6835,02/16.0/2021,2000,g 13.0,4.0
# From MPC114609
325P/Yang-Gao,e,16.6961,257.5732,343.6879,3.523961,0.1489901,0.59359471,299.4907,02/16.0/2021,2000,g 14.0,4.0
# From MPC103849
326P/Hill,e,2.4708,99.8122,278.5861,4.063873,0.1203078,0.31756722,233.9230,02/16.0/2021,2000,g 13.5,4.0
# From MPC 97499
327P/Van Ness,e,36.2485,173.9789,185.0279,3.562497,0.1465792,0.56295362,277.4016,02/16.0/2021,2000,g 16.0,4.0
# From MPC109148
328P/LONEOS-Tucker,e,17.6714,341.6290,30.4815,4.195161,0.1147047,0.55194897,215.6643,02/16.0/2021,2000,g 14.5,4.0
# From MPC101101
329P/LINEAR-Catalina,e,21.6685,87.6795,343.5378,5.192029,0.0833102,0.67700934,158.7187,02/16.0/2021,2000,g 13.5,4.0
# From MPC105243
330P/Catalina,e,15.6941,293.0959,188.9796,6.630457,0.0577283,0.54840863,94.3489,02/16.0/2021,2000,g 12.0,4.0
# From MPEC 2021-BE3
331P/Gibbs,e,9.7389,216.7772,183.8207,3.003870,0.1893138,0.04082742,26.3167,02/16.0/2021,2000,g 12.0,4.0
# From MPEC 2016-K18
332P/Ikeya-Murakami,e,9.3799,3.7889,152.3500,3.088931,0.1815481,0.48945355,326.6976,02/16.0/2021,2000,g 18.0,4.0
# From MPEC 2016-EI8
332P-B/Ikeya-Murakami,e,9.3805,3.8028,152.3711,3.082329,0.1821317,0.48970701,359.9699,03/17.0/2016,2000,g 19.0,4.0
# From MPEC 2016-K18
332P-C/Ikeya-Murakami,e,9.3790,3.7893,152.3413,3.088897,0.1815511,0.48945900,326.7112,02/16.0/2021,2000,g 16.5,4.0
# From MPEC 2016-ED0
332P-D/Ikeya-Murakami,e,9.3761,3.7923,152.4393,3.081138,0.1822373,0.48977814,359.9486,03/17.0/2016,2000,g 19.0,4.0
# From MPEC 2016-ED0
332P-E/Ikeya-Murakami,e,9.3774,3.8228,152.2825,3.079877,0.1823493,0.48922008,359.9889,03/17.0/2016,2000,g 21.0,4.0
# From MPEC 2016-ED0
332P-F/Ikeya-Murakami,e,9.5293,3.4757,152.8203,3.163214,0.1751908,0.49918860,359.8501,03/17.0/2016,2000,g 21.0,4.0
# From MPEC 2016-ED0
332P-G/Ikeya-Murakami,e,9.2523,3.6955,154.4000,3.050519,0.1849880,0.49200362,359.9006,03/19.0/2016,2000,g 19.0,4.0
# From MPC100285
332P-H/Ikeya-Murakami,e,9.3795,3.7890,152.3420,3.089081,0.1815349,0.48949412,326.6491,02/16.0/2021,2000,g 19.0,4.0
# From MPEC 2016-ED0
332P-I/Ikeya-Murakami,e,9.3791,3.8048,152.3297,3.081767,0.1821815,0.48955490,359.9360,03/17.0/2016,2000,g 20.5,2.0
# From MPEC 2016-EI8
332P-J/Ikeya-Murakami,e,9.4296,3.6729,152.7712,3.115165,0.1792596,0.49429435,359.8613,03/17.0/2016,2000,g 20.5,2.0
# From MPEC 2020-L06
333P/LINEAR,e,131.9801,115.6254,26.0164,4.218961,0.1137355,0.73676144,202.7392,02/16.0/2021,2000,g 15.0,4.0
# From MPC115888
334P/NEAT,e,20.4460,90.6955,90.0241,6.838358,0.0551158,0.35218593,74.3736,02/16.0/2021,2000,g 10.5,4.0
# From MPC100285
335P/Gibbs,e,7.2931,330.8466,162.2505,3.578370,0.1456050,0.54564890,281.0626,02/16.0/2021,2000,g 17.0,4.0
# From MPC105244
336P/McNaught,e,17.8339,298.2277,308.7525,5.031696,0.0873238,0.44528081,128.7370,02/16.0/2021,2000,g 13.5,4.0
# From MPC115888
337P/WISE,e,15.3728,106.0708,160.9939,3.287397,0.1653583,0.49683674,277.3130,02/16.0/2021,2000,g 17.0,4.0
# From MPC104796
338P/McNaught,e,25.3765,9.7884,4.3974,3.897548,0.1280905,0.41130803,198.0642,02/16.0/2021,2000,g 12.0,4.0
# From MPC101101
339P/Gibbs,e,5.7344,172.7375,27.5205,3.696249,0.1386954,0.63566108,231.5550,02/16.0/2021,2000,g 17.0,4.0
# From MPC102957
340P/Boattini,e,2.0795,291.7252,35.8236,4.251341,0.1124385,0.28072849,174.1330,02/16.0/2021,2000,g 13.0,4.0
# From MPEC 2021-BE3
341P/Gibbs,e,3.7953,29.9849,312.1369,4.293813,0.1107744,0.41536636,190.9872,02/16.0/2021,2000,g 12.5,4.0
# From MPC101101
342P/SOHO,e,11.6715,27.9887,73.0119,3.043487,0.1856294,0.98284690,0.0000,10/19.2689/2021,2000,g  9.0,4.0
# From MPC109148
343P/NEAT-LONEOS,e,5.5839,257.2174,137.3712,5.460894,0.0772340,0.58405454,114.2942,02/16.0/2021,2000,g 14.0,4.0
# From MPC109148
344P/Read,e,3.4906,273.1809,140.3866,4.866342,0.0918121,0.42176410,143.9956,02/16.0/2021,2000,g 13.0,4.0
# From MPC109148
345P/LINEAR,e,2.7269,154.5027,196.3742,4.039289,0.1214078,0.22088677,203.3114,02/16.0/2021,2000,g 12.0,4.0
# From MPC110086
346P/Catalina,e,22.1860,102.4674,335.9903,4.476071,0.1040779,0.50231578,152.3117,02/16.0/2021,2000,g 14.0,4.0
# From MPC108599
347P/PANSTARRS,e,11.7488,261.0358,98.3176,3.606506,0.1439044,0.38562895,232.7640,02/16.0/2021,2000,g 15.0,4.0
# From MPEC 2020-SI8
348P/PANSTARRS,e,17.7406,312.9421,135.5787,3.151178,0.1761954,0.30669981,296.3374,02/16.0/2021,2000,g 14.0,4.0
# From MPC112394
349P/Lemmon,e,5.4909,331.7444,256.0516,3.572765,0.1459477,0.29914080,185.3961,02/16.0/2021,2000,g 14.0,4.0
# From MPC111775
350P/McNaught,e,7.3567,65.3521,140.3817,4.093110,0.1190211,0.09125803,137.8055,02/16.0/2021,2000,g 14.0,4.0
# From MPC105244
351P/Wiegert-PANSTARRS,e,12.7891,283.4493,352.6532,4.437324,0.1054441,0.29596710,202.0302,02/16.0/2021,2000,g 12.5,4.0
# From MPC110086
352P/Skiff,e,21.0089,28.0768,309.1690,6.636694,0.0576470,0.61820513,76.9343,02/16.0/2021,2000,g 11.5,4.0
# From MPEC 2020-AA5
353P/McNaught,e,28.4250,121.5627,230.3777,4.171344,0.1156885,0.47004465,133.3099,02/16.0/2021,2000,g 14.5,4.0
# From MPC105545
354P/LINEAR,e,5.2556,320.1295,132.9952,2.289759,0.2844587,0.12566116,83.8239,02/16.0/2021,2000,g 15.5,4.0
# From MPEC 2020-AA5
355P/LINEAR-NEAT,e,11.0380,51.4351,336.2494,3.472138,0.1523381,0.50704129,186.1689,02/16.0/2021,2000,g 15.5,2.0
# From MPC109148
356P/WISE,e,9.6364,160.7922,226.0071,4.160132,0.1161565,0.35485666,134.3679,02/16.0/2021,2000,g 14.0,4.0
# From MPC114609
357P/Hill,e,6.3108,44.5743,1.4054,4.461134,0.1046011,0.43465719,103.9857,02/16.0/2021,2000,g 15.5,4.0
# From MPEC 2020-HN5
358P/PANSTARRS,e,11.0575,85.7104,299.7273,3.148002,0.1764622,0.23829791,183.7745,02/16.0/2021,2000,g 18.0,4.0
# From MPC110086
359P/LONEOS,e,10.2664,149.7564,200.1442,4.639569,0.0986251,0.32402853,125.7098,02/16.0/2021,2000,g 13.5,4.0
# From MPC108599
360P/WISE,e,24.1016,2.1908,354.1204,3.702530,0.1383427,0.49879152,176.6248,02/16.0/2021,2000,g 19.5,6.0
# From MPC114609
361P/Spacewatch,e,13.8902,203.2513,219.0742,4.939445,0.0897815,0.43793155,86.1774,02/16.0/2021,2000,g 12.0,4.0
# From MPEC 2017-V13
362P/,e,15.5572,192.5757,53.6988,3.968410,0.1246750,0.27961932,204.1453,02/16.0/2021,2000,g 12.9,2.0
# From MPC114609
363P/Lemmon,e,5.3639,147.0924,341.1538,3.540520,0.1479461,0.53017735,158.8663,02/16.0/2021,2000,g 17.5,4.0
# From MPC114609
364P/PANSTARRS,e,12.1422,46.1984,211.9988,2.879115,0.2017510,0.72230930,195.2254,02/16.0/2021,2000,g 17.0,2.0
# From MPC111775
365P/PANSTARRS,e,9.8307,87.3323,66.2581,3.177098,0.1740436,0.57636114,191.4739,02/16.0/2021,2000,g 17.0,4.0
# From MPC114610
366P/Spacewatch,e,8.8592,70.7569,153.1523,3.495619,0.1508058,0.34836139,141.9293,02/16.0/2021,2000,g 15.0,4.0
# From MPC112395
367P/Catalina,e,8.4629,58.7192,172.9161,3.505455,0.1501715,0.28036413,145.8049,02/16.0/2021,2000,g 17.5,2.0
# From MPC114610
368P/NEAT,e,15.4821,257.9538,118.7827,5.526826,0.0758561,0.62631187,67.1692,02/16.0/2021,2000,g 14.0,4.0
# From MPC114610
369P/Hill,e,10.3125,47.2985,13.1920,4.384979,0.1073378,0.55431234,91.7648,02/16.0/2021,2000,g 15.0,4.0
# From MPC114610
370P/NEAT,e,19.4026,55.1257,356.6884,6.435589,0.0603701,0.61449102,59.3159,02/16.0/2021,2000,g 13.0,4.0
# From MPC114610
371P/LINEAR-Skiff,e,17.3773,67.3095,308.4558,4.181203,0.1152795,0.47654352,99.7361,02/16.0/2021,2000,g 16.0,4.0
# From MPEC 2020-K19
372P/McNaught,e,9.5100,325.8164,27.2454,4.503791,0.1031185,0.15267597,87.4895,02/16.0/2021,2000,g 13.5,4.0
# From MPC114610
373P/Rinner,e,13.7603,231.9484,221.1202,3.804185,0.1328347,0.39216471,90.2187,02/16.0/2021,2000,g 14.5,4.0
# From MPC114610
374P/Larson,e,10.7624,7.9124,51.5082,4.974262,0.0888405,0.46242441,68.1690,02/16.0/2021,2000,g 14.0,4.0
# From MPC114610
375P/Hill,e,17.3612,359.9433,119.4710,5.557700,0.0752249,0.65863892,59.2694,02/16.0/2021,2000,g 16.0,4.0
# From MPEC 2020-W26
